STARLINK-2044
1 27660C 21012AS  21325.12832631 -.00404149  00000-0 -29093-2 0  3250
2 27660  53.0501 159.9261 0007761 295.3878  18.3477 15.73268813    10
